NORAD_CAT_ID,OBJECT_NAME,OBJECT_TYPE,EPOCH,MEAN_MOTION,ECCENTRICITY,INCLINATION,RA_OF_ASC_NODE,ARG_OF_PERICENTER,MEAN_ANOMALY,BSTAR,MEAN_MOTION_DOT,MEAN_MOTION_DDOT,TLE_LINE0,TLE_LINE1,TLE_LINE2,SEMIMAJOR_AXIS,PERIOD,APOGEE,PERIGEE,DECAYED
53576.0,STARLINK-4581,PAYLOAD,2024-07-12 10:12:29,15.08839564,0.0001246,53.2163,251.0604,83.2386,276.8748,8.5373e-05,1.071e-05,0.0,0 STARLINK-4581,1 53576U 22101BB  24194.42534515  .00001071  00000-0  85373-4 0  9990,2 53576  53.2163 251.0604 0001246  83.2386 276.8748 15.08839564105893,6917.882,95.438,540.609,538.885,0.0
53576.0,STARLINK-4581,PAYLOAD,2024-07-12 21:20:11,15.08839097,0.0001222,53.216,248.9783,85.2052,274.9079,6.8619e-05,8.04e-06,0.0,0 STARLINK-4581,1 53576U 22101BB  24194.88902659  .00000804  00000-0  68619-4 0  9995,2 53576  53.2160 248.9783 0001222  85.2052 274.9079 15.08839097105964,6917.883,95.438,540.594,538.903,0.0
53576.0,STARLINK-4581,PAYLOAD,2024-07-13 03:41:44,15.08841895,0.0001172,53.2163,247.7888,80.4327,279.6798,-2.489e-06,-3.27e-06,0.0,0 STARLINK-4581,1 53576U 22101BB  24195.15398726 -.00000327  00000-0 -24890-5 0  9996,2 53576  53.2163 247.7888 0001172  80.4327 279.6798 15.08841895105189,6917.875,95.437,540.55,538.929,0.0
53576.0,STARLINK-4581,PAYLOAD,2024-07-13 10:03:14,15.08873181,0.0001133,53.2157,246.5982,85.2062,274.906,0.00024878,3.677e-05,0.0,0 STARLINK-4581,1 53576U 22101BB  24195.41891641  .00003677  00000-0  24878-3 0  9992,2 53576  53.2157 246.5982 0001133  85.2062 274.9060 15.08873181105228,6917.779,95.435,540.428,538.86,0.0
53576.0,STARLINK-4581,PAYLOAD,2024-07-13 13:14:00,15.08875991,0.0001171,53.2156,246.0034,84.597,275.5156,0.00026266,3.899e-05,0.0,0 STARLINK-4581,1 53576U 22101BB  24195.55139176  .00003899  00000-0  26266-3 0  9994,2 53576  53.2156 246.0034 0001171  84.5970 275.5156 15.08875991106069,6917.77,95.435,540.445,538.825,0.0
53576.0,STARLINK-4581,PAYLOAD,2024-07-14 00:21:43,15.0885103,0.0001058,53.2161,243.922,96.8508,263.2605,0.00021145,3.08e-05,0.0,0 STARLINK-4581,1 53576U 22101BB  24196.01508324  .00003080  00000-0  21145-3 0  9994,2 53576  53.2161 243.9220 0001058  96.8508 263.2605 15.08851030105313,6917.847,95.437,540.444,538.98,0.0
53576.0,STARLINK-4581,PAYLOAD,2024-07-14 09:54:04,15.08825315,0.000119,53.2159,242.1375,98.3693,261.7434,-2.2785e-05,-6.5e-06,0.0,0 STARLINK-4581,1 53576U 22101BB  24196.41254756 -.00000650  00000-0 -22785-4 0  9999,2 53576  53.2159 242.1375 0001190  98.3693 261.7434 15.08825315105377,6917.925,95.438,540.614,538.967,0.0
53576.0,STARLINK-4581,PAYLOAD,2024-07-15 09:44:52,15.08816485,0.0001128,53.2163,237.679,90.2882,269.8239,-9.1986e-05,-1.75e-05,0.0,0 STARLINK-4581,1 53576U 22101BB  24197.40616677 -.00001750  00000-0 -91986-4 0  9994,2 53576  53.2163 237.6790 0001128  90.2882 269.8239 15.08816485105521,6917.952,95.439,540.598,539.037,0.0
53576.0,STARLINK-4581,PAYLOAD,2024-07-15 19:17:11,15.08826381,0.0001017,53.2157,235.8937,88.0878,272.0231,-0.00036204,-6.043e-05,0.0,0 STARLINK-4581,1 53576U 22101BB  24197.80360975 -.00006043  00000-0 -36204-3 0  9996,2 53576  53.2157 235.8937 0001017  88.0878 272.0231 15.08826381106406,6917.922,95.438,540.491,539.083,0.0
53576.0,STARLINK-4581,PAYLOAD,2024-07-16 08:00:16,15.08826265,0.0001372,53.2162,233.5186,110.1355,249.9785,0.00022284,3.259e-05,0.0,0 STARLINK-4581,1 53576U 22101BB  24198.33351934  .00003259  00000-0  22284-3 0  9997,2 53576  53.2162 233.5186 0001372 110.1355 249.9785 15.08826265105669,6917.922,95.438,540.737,538.838,0.0
53576.0,STARLINK-4581,PAYLOAD,2024-07-17 03:04:53,15.08837328,0.0001391,53.217,229.9505,116.4857,243.6278,0.0003026,4.531e-05,0.0,0 STARLINK-4581,1 53576U 22101BB  24199.12839832  .00004531  00000-0  30260-3 0  9990,2 53576  53.2170 229.9505 0001391 116.4857 243.6278 15.08837328105782,6917.889,95.438,540.716,538.791,0.0
53576.0,STARLINK-4581,PAYLOAD,2024-07-17 09:26:26,15.08844759,9.19e-05,53.2133,228.7554,81.7659,278.3437,0.00042046,6.411e-05,0.0,0 STARLINK-4581,1 53576U 22101BB  24199.39336372  .00006411  00000-0  42046-3 0  9994,2 53576  53.2133 228.7554 0000919  81.7659 278.3437 15.08844759106645,6917.866,95.437,540.367,539.095,0.0
53576.0,STARLINK-4581,PAYLOAD,2024-07-18 10:52:35,15.08853683,0.0001152,53.214,223.9983,91.163,268.9494,8.8515e-05,1.122e-05,0.0,0 STARLINK-4581,1 53576U 22101BB  24200.45319359  .00001122  00000-0  88515-4 0  9996,2 53576  53.2140 223.9983 0001152  91.1630 268.9494 15.08853683105980,6917.839,95.437,540.501,538.907,0.0
53576.0,STARLINK-4581,PAYLOAD,2024-07-19 01:11:04,15.08848349,0.0001198,53.2141,221.3225,89.5382,270.5748,3.4355e-05,2.59e-06,0.0,0 STARLINK-4581,1 53576U 22101BB  24201.04935428  .00000259  00000-0  34355-4 0  9996,2 53576  53.2141 221.3225 0001198  89.5382 270.5748 15.08848349106072,6917.855,95.437,540.549,538.891,0.0
53576.0,STARLINK-4581,PAYLOAD,2024-07-19 09:08:00,15.08846058,0.0001239,53.2157,219.8341,90.3126,269.8008,1.4086e-05,-6.4e-07,0.0,0 STARLINK-4581,1 53576U 22101BB  24201.38055804 -.00000064  00000-0  14086-4 0  9998,2 53576  53.2157 219.8341 0001239  90.3126 269.8008 15.08846058106943,6917.862,95.437,540.584,538.87,0.0
53576.0,STARLINK-4581,PAYLOAD,2024-07-19 18:40:18,15.08847442,0.0001223,53.2157,218.0502,91.7097,268.4036,1.4264e-05,-6.1e-07,0.0,0 STARLINK-4581,1 53576U 22101BB  24201.77799428 -.00000061  00000-0  14264-4 0  9993,2 53576  53.2157 218.0502 0001223  91.7097 268.4036 15.08847442107000,6917.858,95.437,540.569,538.877,0.0
53576.0,STARLINK-4581,PAYLOAD,2024-07-20 01:01:51,15.0884455,0.0001248,53.2156,216.8606,92.2322,267.8813,5.4469e-05,5.79e-06,0.0,0 STARLINK-4581,1 53576U 22101BB  24202.04295343  .00000579  00000-0  54469-4 0  9995,2 53576  53.2156 216.8606 0001248  92.2322 267.8813 15.08844550106220,6917.866,95.437,540.595,538.868,0.0
53576.0,STARLINK-4581,PAYLOAD,2024-07-20 07:23:23,15.08847582,0.0001227,53.2154,215.6712,93.6407,266.4725,7.4532e-05,8.99e-06,0.0,0 STARLINK-4581,1 53576U 22101BB  24202.30790983  .00000899  00000-0  74532-4 0  9992,2 53576  53.2154 215.6712 0001227  93.6407 266.4725 15.08847582107089,6917.857,95.437,540.571,538.873,0.0
53576.0,STARLINK-4581,PAYLOAD,2024-07-21 04:03:24,15.0883844,0.0001248,53.2155,211.8051,94.8177,265.2958,5.6534e-05,6.12e-06,0.0,0 STARLINK-4581,1 53576U 22101BB  24203.16903445  .00000612  00000-0  56534-4 0  9991,2 53576  53.2155 211.8051 0001248  94.8177 265.2958 15.08838440106395,6917.885,95.438,540.614,538.887,0.0
53576.0,STARLINK-4581,PAYLOAD,2024-07-21 10:24:57,15.0883687,0.0001247,53.2154,210.6155,96.5241,263.5893,3.6608e-05,2.95e-06,0.0,0 STARLINK-4581,1 53576U 22101BB  24203.43399588  .00000295  00000-0  36608-4 0  9995,2 53576  53.2154 210.6155 0001247  96.5241 263.5893 15.08836870107256,6917.89,95.438,540.618,538.892,0.0
53576.0,STARLINK-4581,PAYLOAD,2024-07-22 05:29:34,15.0883955,0.0001318,53.2156,207.0469,98.5926,261.5215,-9.8246e-06,-4.44e-06,0.0,0 STARLINK-4581,1 53576U 22101BB  24204.22887611 -.00000444  00000-0 -98246-5 0  9997,2 53576  53.2156 207.0469 0001318  98.5926 261.5215 15.08839550106553,6917.882,95.438,540.659,538.835,0.0
53576.0,STARLINK-4581,PAYLOAD,2024-07-22 22:58:51,15.08810018,0.0001288,53.2147,203.7767,99.8588,260.255,-0.00010209,-1.911e-05,0.0,0 STARLINK-4581,1 53576U 22101BB  24204.95754564 -.00001911  00000-0 -10209-3 0  9998,2 53576  53.2147 203.7767 0001288  99.8588 260.2550 15.08810018107480,6917.972,95.439,540.728,538.946,0.0
53576.0,STARLINK-4581,PAYLOAD,2024-07-23 03:45:00,15.08828975,0.0001236,53.2153,202.8832,98.0495,262.0637,4.9344e-05,4.97e-06,0.0,0 STARLINK-4581,1 53576U 22101BB  24205.15625351  .00000497  00000-0  49344-4 0  9991,2 53576  53.2153 202.8832 0001236  98.0495 262.0637 15.08828975106690,6917.914,95.438,540.634,538.924,0.0
53576.0,STARLINK-4581,PAYLOAD,2024-07-23 06:55:46,15.08832923,0.0001185,53.2149,202.2891,88.9249,271.1879,9.1489e-05,1.168e-05,0.0,0 STARLINK-4581,1 53576U 22101BB  24205.28873163  .00001168  00000-0  91489-4 0  9994,2 53576  53.2149 202.2891 0001185  88.9249 271.1879 15.08832923107533,6917.902,95.438,540.587,538.947,0.0
53576.0,STARLINK-4581,PAYLOAD,2024-07-24 05:11:09,15.08841241,0.0001317,53.2155,198.1275,98.2733,261.8409,0.00018556,2.667e-05,0.0,0 STARLINK-4581,1 53576U 22101BB  24206.21608754  .00002667  00000-0  18556-3 0  9998,2 53576  53.2155 198.1275 0001317  98.2733 261.8409 15.08841241106850,6917.877,95.437,540.653,538.831,0.0
53576.0,STARLINK-4581,PAYLOAD,2024-07-24 22:40:24,15.08850274,0.0001089,53.2145,194.8539,80.0298,280.0817,0.00016008,2.261e-05,0.0,0 STARLINK-4581,1 53576U 22101BB  24206.94472556  .00002261  00000-0  16008-3 0  9997,2 53576  53.2145 194.8539 0001089  80.0298 280.0817 15.08850274107781,6917.849,95.437,540.467,538.961,0.0
53576.0,STARLINK-4581,PAYLOAD,2024-07-25 06:37:19,15.08852862,0.0001162,53.2152,193.3685,89.1088,271.0037,0.00016242,2.299e-05,0.0,0 STARLINK-4581,1 53576U 22101BB  24207.27592228  .00002299  00000-0  16242-3 0  9994,2 53576  53.2152 193.3685 0001162  89.1088 271.0037 15.08852862107019,6917.841,95.437,540.51,538.902,0.0
53576.0,STARLINK-4581,PAYLOAD,2024-07-25 22:31:11,15.08850709,0.0001184,53.2154,190.3955,88.3193,271.7935,1.243e-05,-9e-07,0.0,0 STARLINK-4581,1 53576U 22101BB  24207.93832255 -.00000090  00000-0  12430-4 0  9998,2 53576  53.2154 190.3955 0001184  88.3193 271.7935 15.08850709107933,6917.848,95.437,540.532,538.894,0.0
53576.0,STARLINK-4581,PAYLOAD,2024-07-26 04:52:43,15.08847957,0.0001199,53.2154,189.205,87.6034,272.5095,-1.3591e-05,-5.04e-06,0.0,0 STARLINK-4581,1 53576U 22101BB  24208.20328346 -.00000504  00000-0 -13591-4 0  9990,2 53576  53.2154 189.2050 0001199  87.6034 272.5095 15.08847957107159,6917.856,95.437,540.551,538.892,0.0
53576.0,STARLINK-4581,PAYLOAD,2024-07-26 08:03:29,15.08847911,0.0001299,53.2159,188.6106,93.8958,266.2183,-1.2629e-05,-4.89e-06,0.0,0 STARLINK-4581,1 53576U 22101BB  24208.33576220 -.00000489  00000-0 -12629-4 0  9993,2 53576  53.2159 188.6106 0001299  93.8958 266.2183 15.08847911107994,6917.856,95.437,540.62,538.823,0.0
